{"fetched_at":"2026-03-29T02:12:04Z","count":15717,"tles":[{"name":"DONGPO 04","line1":"1 53451U 22098H   26087.36678279  .00301005  34837-4  10856-2 0  9990","line2":"2 53451  97.5488 220.8864 0004932 248.5636 111.5110 15.88628420202539","category":"Other"}]}